[
    {
        "Altitude(m)": 557154.265542405,
        "Argument of Periapsis(deg)": 0.033114955553567506,
        "Eccentricity": 0.0,
        "Inclination(deg)": 53.0,
        "Latitude(deg)": 40.967934377636126,
        "Longitude(deg)": 35.41539815930433,
        "Mean Anomaly(deg)": 125.00346433788795,
        "RAAN(deg)": -0.04928315735991589,
        "Satellite Name": "Starlink Shell 1 4",
        "Satellite Number": 4,
        "Semi-Major Axis(m)": 6931778.249405717,
        "Time(s)": 950
    },
    {
        "Altitude(m)": 557071.9644389565,
        "Argument of Periapsis(deg)": 0.03346353403307874,
        "Eccentricity": 0.0,
        "Inclination(deg)": 53.0,
        "Latitude(deg)": 40.58497022485236,
        "Longitude(deg)": 36.02904702637022,
        "Mean Anomaly(deg)": 125.63029554144464,
        "RAAN(deg)": -0.049801927437388684,
        "Satellite Name": "Starlink Shell 1 4",
        "Satellite Number": 4,
        "Semi-Major Axis(m)": 6931778.249405717,
        "Time(s)": 960
    },
    {
        "Altitude(m)": 556989.3483760989,
        "Argument of Periapsis(deg)": 0.03381211251258998,
        "Eccentricity": 0.0,
        "Inclination(deg)": 53.0,
        "Latitude(deg)": 40.198309451526974,
        "Longitude(deg)": 36.63523906724632,
        "Mean Anomaly(deg)": 126.25712674500137,
        "RAAN(deg)": -0.050320697514861484,
        "Satellite Name": "Starlink Shell 1 4",
        "Satellite Number": 4,
        "Semi-Major Axis(m)": 6931778.249405717,
        "Time(s)": 970
    },
    {
        "Altitude(m)": 556906.4707863581,
        "Argument of Periapsis(deg)": 0.034160690992101214,
        "Eccentricity": 0.0,
        "Inclination(deg)": 53.0,
        "Latitude(deg)": 39.808042209979064,
        "Longitude(deg)": 37.23409029897249,
        "Mean Anomaly(deg)": 126.88395794855808,
        "RAAN(deg)": -0.05083946759233428,
        "Satellite Name": "Starlink Shell 1 4",
        "Satellite Number": 4,
        "Semi-Major Axis(m)": 6931778.249405717,
        "Time(s)": 980
    },
    {
        "Altitude(m)": 556823.385445254,
        "Argument of Periapsis(deg)": 0.034509269471612446,
        "Eccentricity": 0.0,
        "Inclination(deg)": 53.0,
        "Latitude(deg)": 39.41425680810987,
        "Longitude(deg)": 37.82571849394643,
        "Mean Anomaly(deg)": 127.51078915211478,
        "RAAN(deg)": -0.05135823766980708,
        "Satellite Name": "Starlink Shell 1 4",
        "Satellite Number": 4,
        "Semi-Major Axis(m)": 6931778.249405717,
        "Time(s)": 990
    }
]